{"type": "FeatureCollection", "features": [ {"type": "Feature", "properties": {"norad_id": 60453, "name": "LEGION 4", "group": "resource", "lat": -2.7068779785142327, "lon": -127.20579320921478, "alt_km": 522.1979499845602, "timestamp": "2025-12-11T05:00:25.968971+00:00", "meta": {"OBJECT_NAME": "LEGION 4", "OBJECT_ID": "2024-146B", "EPOCH": "2025-12-10T21:52:21.916992", "MEAN_MOTION": 15.15793216, "ECCENTRICITY": 0.00096608, "INCLINATION": 45.0386, "RA_OF_ASC_NODE": 51.6795, "ARG_OF_PERICENTER": 301.7283, "MEAN_ANOMALY": 58.2654, "EPHEMERIS_TYPE": 0, "CLASSIFICATION_TYPE": "U", "NORAD_CAT_ID": 60453, "ELEMENT_SET_NO": 999, "REV_AT_EPOCH": 7230, "BSTAR": 0.00042442888, "MEAN_MOTION_DOT": 7.994e-05, "MEAN_MOTION_DDOT": 0}, "tle": {"line1": "1 60453U 24146B   25344.91136478  .00007994  00000+0  42443-3 0  9990", "line2": "2 60453  45.0386  51.6795 0009660 301.7283  58.2654 15.15793216 72306"}}, "geometry": {"type": "Point", "coordinates": [-127.20579320921478, -2.7068779785142327]}}, {"type": "Feature", "properties": {"norad_id": 60989, "name": "SENTINEL-2C", "group": "resource", "lat": 40.75293232554983, "lon": 50.24805504052668, "alt_km": 785.2594094290125, "timestamp": "2025-12-11T05:00:25.968981+00:00", "meta": {"OBJECT_NAME": "SENTINEL-2C", "OBJECT_ID": "2024-157A", "EPOCH": "2025-12-10T22:06:05.377248", "MEAN_MOTION": 14.30816414, "ECCENTRICITY": 0.00011996, "INCLINATION": 98.5684, "RA_OF_ASC_NODE": 57.4297, "ARG_OF_PERICENTER": 97.7886, "MEAN_ANOMALY": 262.3433, "EPHEMERIS_TYPE": 0, "CLASSIFICATION_TYPE": "U", "NORAD_CAT_ID": 60989, "ELEMENT_SET_NO": 999, "REV_AT_EPOCH": 6606, "BSTAR": 0.00010429475, "MEAN_MOTION_DOT": 2.3e-06, "MEAN_MOTION_DDOT": 0}, "tle": {"line1": "1 60989U 24157A   25344.92089557  .00000230  00000+0  10429-3 0  9997", "line2": "2 60989  98.5684  57.4297 0001199  97.7886 262.3433 14.30816414 66066"}}, "geometry": {"type": "Point", "coordinates": [50.24805504052668, 40.75293232554983]}}, {"type": "Feature", "properties": {"norad_id": 61735, "name": "IONOSFERA-M 1", "group": "resource", "lat": -7.668894369668943, "lon": -143.74448291617125, "alt_km": 819.4094377874499, "timestamp": "2025-12-11T05:00:25.968990+00:00", "meta": {"OBJECT_NAME": "IONOSFERA-M 1", "OBJECT_ID": "2024-199A", "EPOCH": "2025-12-10T22:17:31.585056", "MEAN_MOTION": 14.22713416, "ECCENTRICITY": 0.00010478, "INCLINATION": 98.7411, "RA_OF_ASC_NODE": 214.7909, "ARG_OF_PERICENTER": 24.6857, "MEAN_ANOMALY": 335.4371, "EPHEMERIS_TYPE": 0, "CLASSIFICATION_TYPE": "U", "NORAD_CAT_ID": 61735, "ELEMENT_SET_NO": 999, "REV_AT_EPOCH": 10093, "BSTAR": 7.1063126e-05, "MEAN_MOTION_DOT": 1.15e-06, "MEAN_MOTION_DDOT": 0}, "tle": {"line1": "1 61735U 24199A   25344.92883779  .00000115  00000+0  71063-4 0  9995", "line2": "2 61735  98.7411 214.7909 0001047  24.6857 335.4371 14.22713416100930"}}, "geometry": {"type": "Point", "coordinates": [-143.74448291617125, -7.668894369668943]}}, {"type": "Feature", "properties": {"norad_id": 61736, "name": "IONOSFERA-M 2", "group": "resource", "lat": 4.794067066367739, "lon": 35.72021872655669, "alt_km": 817.9263463747875, "timestamp": "2025-12-11T05:00:25.969000+00:00", "meta": {"OBJECT_NAME": "IONOSFERA-M 2", "OBJECT_ID": "2024-199B", "EPOCH": "2025-12-10T23:07:25.224960", "MEAN_MOTION": 14.22715615, "ECCENTRICITY": 0.00016026, "INCLINATION": 98.7403, "RA_OF_ASC_NODE": 214.7378, "ARG_OF_PERICENTER": 112.9591, "MEAN_ANOMALY": 247.1756, "EPHEMERIS_TYPE": 0, "CLASSIFICATION_TYPE": "U", "NORAD_CAT_ID": 61736, "ELEMENT_SET_NO": 999, "REV_AT_EPOCH": 10406, "BSTAR": 7.1444941e-05, "MEAN_MOTION_DOT": 1.16e-06, "MEAN_MOTION_DDOT": 0}, "tle": {"line1": "1 61736U 24199B   25344.96348640  .00000116  00000+0  71445-4 0  9998", "line2": "2 61736  98.7403 214.7378 0001602 112.9591 247.1756 14.22715615104062"}}, "geometry": {"type": "Point", "coordinates": [35.72021872655669, 4.794067066367739]}}, {"type": "Feature", "properties": {"norad_id": 63772, "name": "BIOMASS", "group": "resource", "lat": 58.33710676250631, "lon": 3.5412213532922845, "alt_km": 662.7004039235126, "timestamp": "2025-12-11T05:00:25.969010+00:00", "meta": {"OBJECT_NAME": "BIOMASS", "OBJECT_ID": "2025-090A", "EPOCH": "2025-12-10T21:54:50.080032", "MEAN_MOTION": 14.67540383, "ECCENTRICITY": 0.00011751, "INCLINATION": 98.0701, "RA_OF_ASC_NODE": 169.9494, "ARG_OF_PERICENTER": 77.8328, "MEAN_ANOMALY": 282.3008, "EPHEMERIS_TYPE": 0, "CLASSIFICATION_TYPE": "U", "NORAD_CAT_ID": 63772, "ELEMENT_SET_NO": 999, "REV_AT_EPOCH": 3307, "BSTAR": 0.00038027793, "MEAN_MOTION_DOT": 2.109e-05, "MEAN_MOTION_DDOT": 0}, "tle": {"line1": "1 63772U 25090A   25344.91307963  .00002109  00000+0  38028-3 0  9992", "line2": "2 63772  98.0701 169.9494 0001175  77.8328 282.3008 14.67540383 33070"}}, "geometry": {"type": "Point", "coordinates": [3.5412213532922845, 58.33710676250631]}}, {"type": "Feature", "properties": {"norad_id": 64694, "name": "GOSAT-GW (IBUKI GW)", "group": "resource", "lat": -29.762014025300154, "lon": -74.6133849434259, "alt_km": 675.1783695688264, "timestamp": "2025-12-11T05:00:25.969020+00:00", "meta": {"OBJECT_NAME": "GOSAT-GW (IBUKI GW)", "OBJECT_ID": "2025-141A", "EPOCH": "2025-12-10T22:35:55.172256", "MEAN_MOTION": 14.67565098, "ECCENTRICITY": 0.00014737, "INCLINATION": 98.0423, "RA_OF_ASC_NODE": 280.4871, "ARG_OF_PERICENTER": 82.5125, "MEAN_ANOMALY": 277.6247, "EPHEMERIS_TYPE": 0, "CLASSIFICATION_TYPE": "U", "NORAD_CAT_ID": 64694, "ELEMENT_SET_NO": 999, "REV_AT_EPOCH": 2423, "BSTAR": 0.0002731805, "MEAN_MOTION_DOT": 1.503e-05, "MEAN_MOTION_DDOT": 0}, "tle": {"line1": "1 64694U 25141A   25344.94161079  .00001503  00000+0  27318-3 0  9999", "line2": "2 64694  98.0423 280.4871 0001473  82.5125 277.6247 14.67565098 24232"}}, "geometry": {"type": "Point", "coordinates": [-74.6133849434259, -29.762014025300154]}}, {"type": "Feature", "properties": {"norad_id": 64876, "name": "IONOSFERA-M 3", "group": "resource", "lat": -45.73676289616062, "lon": 118.2087661838255, "alt_km": 828.7685908148542, "timestamp": "2025-12-11T05:00:25.969030+00:00", "meta": {"OBJECT_NAME": "IONOSFERA-M 3", "OBJECT_ID": "2025-155A", "EPOCH": "2025-12-10T22:52:39.701856", "MEAN_MOTION": 14.21440305, "ECCENTRICITY": 0.00022657, "INCLINATION": 98.578, "RA_OF_ASC_NODE": 306.87, "ARG_OF_PERICENTER": 62.8601, "MEAN_ANOMALY": 297.2808, "EPHEMERIS_TYPE": 0, "CLASSIFICATION_TYPE": "U", "NORAD_CAT_ID": 64876, "ELEMENT_SET_NO": 999, "REV_AT_EPOCH": 1966, "BSTAR": 8.7563137e-05, "MEAN_MOTION_DOT": 1.49e-06, "MEAN_MOTION_DDOT": 0}, "tle": {"line1": "1 64876U 25155A   25344.95323729  .00000149  00000+0  87563-4 0  9993", "line2": "2 64876  98.5780 306.8700 0002265  62.8601 297.2808 14.21440305 19664"}}, "geometry": {"type": "Point", "coordinates": [118.2087661838255, -45.73676289616062]}}, {"type": "Feature", "properties": {"norad_id": 64877, "name": "IONOSFERA-M 4", "group": "resource", "lat": 46.20136750680477, "lon": -62.018579260171705, "alt_km": 815.296072198319, "timestamp": "2025-12-11T05:00:25.969040+00:00", "meta": {"OBJECT_NAME": "IONOSFERA-M 4", "OBJECT_ID": "2025-155B", "EPOCH": "2025-12-10T22:01:47.742816", "MEAN_MOTION": 14.21441417, "ECCENTRICITY": 0.00016237, "INCLINATION": 98.5779, "RA_OF_ASC_NODE": 306.7552, "ARG_OF_PERICENTER": 65.1008, "MEAN_ANOMALY": 295.0339, "EPHEMERIS_TYPE": 0, "CLASSIFICATION_TYPE": "U", "NORAD_CAT_ID": 64877, "ELEMENT_SET_NO": 999, "REV_AT_EPOCH": 1965, "BSTAR": 9.5012364e-05, "MEAN_MOTION_DOT": 1.65e-06, "MEAN_MOTION_DDOT": 0}, "tle": {"line1": "1 64877U 25155B   25344.91791369  .00000165  00000+0  95012-4 0  9995", "line2": "2 64877  98.5779 306.7552 0001623  65.1008 295.0339 14.21441417 19650"}}, "geometry": {"type": "Point", "coordinates": [-62.018579260171705, 46.20136750680477]}}, {"type": "Feature", "properties": {"norad_id": 64899, "name": "MICROCARB", "group": "resource", "lat": -74.67138569894291, "lon": 91.45865212601294, "alt_km": 670.1047601217724, "timestamp": "2025-12-11T05:00:25.969049+00:00", "meta": {"OBJECT_NAME": "MICROCARB", "OBJECT_ID": "2025-156A", "EPOCH": "2025-12-10T16:18:22.409856", "MEAN_MOTION": 14.72051912, "ECCENTRICITY": 0.00170079, "INCLINATION": 98.0027, "RA_OF_ASC_NODE": 60.0579, "ARG_OF_PERICENTER": 151.0603, "MEAN_ANOMALY": 209.1551, "EPHEMERIS_TYPE": 0, "CLASSIFICATION_TYPE": "U", "NORAD_CAT_ID": 64899, "ELEMENT_SET_NO": 999, "REV_AT_EPOCH": 2023, "BSTAR": 0.00019654512, "MEAN_MOTION_DOT": 1.188e-05, "MEAN_MOTION_DDOT": 0}, "tle": {"line1": "1 64899U 25156A   25344.67942604  .00001188  00000+0  19655-3 0  9997", "line2": "2 64899  98.0027  60.0579 0017007 151.0603 209.1551 14.72051912 20234"}}, "geometry": {"type": "Point", "coordinates": [91.45865212601294, -74.67138569894291]}}, {"type": "Feature", "properties": {"norad_id": 64900, "name": "CO3D 3", "group": "resource", "lat": 58.74271805090533, "lon": 49.17564066581348, "alt_km": 498.81540651671276, "timestamp": "2025-12-11T05:00:25.969059+00:00", "meta": {"OBJECT_NAME": "CO3D 3", "OBJECT_ID": "2025-156B", "EPOCH": "2025-12-10T22:25:38.176896", "MEAN_MOTION": 15.20213047, "ECCENTRICITY": 0.00013964, "INCLINATION": 97.4338, "RA_OF_ASC_NODE": 61.3273, "ARG_OF_PERICENTER": 101.4652, "MEAN_ANOMALY": 258.674, "EPHEMERIS_TYPE": 0, "CLASSIFICATION_TYPE": "U", "NORAD_CAT_ID": 64900, "ELEMENT_SET_NO": 999, "REV_AT_EPOCH": 2093, "BSTAR": 0.00044048872, "MEAN_MOTION_DOT": 9.483e-05, "MEAN_MOTION_DDOT": 0}, "tle": {"line1": "1 64900U 25156B   25344.93446964  .00009483  00000+0  44049-3 0  9998", "line2": "2 64900  97.4338  61.3273 0001396 101.4652 258.6740 15.20213047 20936"}}, "geometry": {"type": "Point", "coordinates": [49.17564066581348, 58.74271805090533]}}]}